STARLINK-1695
1 16329C 20062E   21326.15138299  .00004349  00000-0  29132-3 0  3260
2 16329  53.0519 198.0574 0001981  68.5632 145.1458 15.06403012    13
